[{"OBJECT_NAME":"STARLINK-35875","OBJECT_ID":"2025-299K","EPOCH":"2026-03-09T22:00:01.999584","MEAN_MOTION":15.2843404,"ECCENTRICITY":0.00017779,"INCLINATION":43.0001,"RA_OF_ASC_NODE":167.5617,"ARG_OF_PERICENTER":289.1685,"MEAN_ANOMALY":36.838,"EPHEMERIS_TYPE":0,"CLASSIFICATION_TYPE":"U","NORAD_CAT_ID":67111,"ELEMENT_SET_NO":999,"REV_AT_EPOCH":590,"BSTAR":-0.00049262906,"MEAN_MOTION_DOT":-0.00014153,"MEAN_MOTION_DDOT":0},{"OBJECT_NAME":"KUIPER-00252","OBJECT_ID":"2025-301AA","EPOCH":"2026-03-09T22:00:01.999584","MEAN_MOTION":15.32961042,"ECCENTRICITY":0.00108625,"INCLINATION":51.8682,"RA_OF_ASC_NODE":64.6463,"ARG_OF_PERICENTER":55.9089,"MEAN_ANOMALY":330.8749,"EPHEMERIS_TYPE":0,"CLASSIFICATION_TYPE":"U","NORAD_CAT_ID":67157,"ELEMENT_SET_NO":999,"REV_AT_EPOCH":542,"BSTAR":-0.017504489,"MEAN_MOTION_DOT":-0.00529484,"MEAN_MOTION_DDOT":0}]
